ISS (ZARYA)             
1 25544U 98067A   26087.16470415  .00012619  00000+0  24003-3 0  9991
2 25544  51.6345 341.0267 0006226 240.9881 119.0483 15.48601072559196
POISK                   
1 36086U 09060A   26087.16470415  .00012619  00000+0  24003-3 0  9999
2 36086  51.6345 341.0267 0006226 240.9881 119.0483 15.48601072557434
CSS (TIANHE)            
1 48274U 21035A   26087.20348046  .00017871  00000+0  20559-3 0  9993
2 48274  41.4668  95.4304 0004098  43.6624 316.4539 15.61574783280500
ISS (NAUKA)             
1 49044U 21066A   26087.16470415  .00012619  00000+0  24003-3 0  9997
2 49044  51.6345 341.0267 0006226 240.9881 119.0483 15.48601072557476
FREGAT DEB              
1 49271U 11037PF  26087.13525433  .00009431  00000+0  13448-1 0  9991
2 49271  51.6445 245.3676 0961314 101.7055 269.3133 12.40730892214983
CSS (WENTIAN)           
1 53239U 22085A   26087.20348046  .00017871  00000+0  20559-3 0  9996
2 53239  41.4668  95.4304 0004098  43.6624 316.4539 15.61574783280282
CSS (MENGTIAN)          
1 54216U 22143A   26087.20348046  .00017871  00000+0  20559-3 0  9997
2 54216  41.4668  95.4304 0004098  43.6624 316.4539 15.61574783280288
TIANZHOU-9              
1 64786U 25149A   26087.20348046  .00017871  00000+0  20559-3 0  9999
2 64786  41.4668  95.4304 0004098  43.6624 316.4539 15.61574783280281
PROGRESS-MS 32          
1 65586U 25204A   26087.16470415  .00012619  00000+0  24003-3 0  9994
2 65586  51.6345 341.0267 0006226 240.9881 119.0483 15.48601072554506
YOTSUBA-KULOVER         
1 65941U 98067XN  26087.05018083  .00366776  61438-4  11577-2 0  9997
2 65941  51.6180 321.3981 0005719 208.0412 152.0286 15.90752437 26414
BOTAN                   
1 65943U 98067XQ  26086.93531293  .00331706  51569-4  11002-2 0  9990
2 65943  51.6220 322.1560 0006130 203.7870 156.2853 15.89793080 26391
HRC MONOBLOCK CAMERA    
1 66052U 98067XR  26087.11188260  .00056107  00000+0  58101-3 0  9995
2 66052  51.6287 332.4212 0003827 178.5608 181.5399 15.64137468 25279
