CCSDS_OMM_VERS = 2.0
CREATION_DATE  = 
ORIGINATOR     = 

OBJECT_NAME    = ISS (ZARYA)
OBJECT_ID      = 1998-067A
CENTER_NAME    = EARTH
REF_FRAME      = TEME
TIME_SYSTEM    = UTC
MEAN_ELEMENT_THEORY = SGP/SGP4

EPOCH          = 2026-03-28T03:57:10.438560
MEAN_MOTION    = 15.48601072
ECCENTRICITY   = .00062264
INCLINATION    = 51.6345
RA_OF_ASC_NODE = 341.0267
ARG_OF_PERICENTER = 240.9881
MEAN_ANOMALY   = 119.0483

EPHEMERIS_TYPE = 0
CLASSIFICATION_TYPE = U
NORAD_CAT_ID   = 25544
ELEMENT_SET_NO = 999
REV_AT_EPOCH   = 55919
BSTAR          = .24002995E-3
MEAN_MOTION_DOT = .12619E-3
MEAN_MOTION_DDOT = 0

CCSDS_OMM_VERS = 2.0
CREATION_DATE  = 
ORIGINATOR     = 

OBJECT_NAME    = POISK
OBJECT_ID      = 2009-060A
CENTER_NAME    = EARTH
REF_FRAME      = TEME
TIME_SYSTEM    = UTC
MEAN_ELEMENT_THEORY = SGP/SGP4

EPOCH          = 2026-03-28T03:57:10.438560
MEAN_MOTION    = 15.48601072
ECCENTRICITY   = .00062264
INCLINATION    = 51.6345
RA_OF_ASC_NODE = 341.0267
ARG_OF_PERICENTER = 240.9881
MEAN_ANOMALY   = 119.0483

EPHEMERIS_TYPE = 0
CLASSIFICATION_TYPE = U
NORAD_CAT_ID   = 36086
ELEMENT_SET_NO = 999
REV_AT_EPOCH   = 55743
BSTAR          = .24002995E-3
MEAN_MOTION_DOT = .12619E-3
MEAN_MOTION_DDOT = 0

CCSDS_OMM_VERS = 2.0
CREATION_DATE  = 
ORIGINATOR     = 

OBJECT_NAME    = CSS (TIANHE)
OBJECT_ID      = 2021-035A
CENTER_NAME    = EARTH
REF_FRAME      = TEME
TIME_SYSTEM    = UTC
MEAN_ELEMENT_THEORY = SGP/SGP4

EPOCH          = 2026-03-28T04:53:00.711744
MEAN_MOTION    = 15.61574783
ECCENTRICITY   = .00040982
INCLINATION    = 41.4668
RA_OF_ASC_NODE = 95.4304
ARG_OF_PERICENTER = 43.6624
MEAN_ANOMALY   = 316.4539

EPHEMERIS_TYPE = 0
CLASSIFICATION_TYPE = U
NORAD_CAT_ID   = 48274
ELEMENT_SET_NO = 999
REV_AT_EPOCH   = 28050
BSTAR          = .20558652E-3
MEAN_MOTION_DOT = .17871E-3
MEAN_MOTION_DDOT = 0

CCSDS_OMM_VERS = 2.0
CREATION_DATE  = 
ORIGINATOR     = 

OBJECT_NAME    = ISS (NAUKA)
OBJECT_ID      = 2021-066A
CENTER_NAME    = EARTH
REF_FRAME      = TEME
TIME_SYSTEM    = UTC
MEAN_ELEMENT_THEORY = SGP/SGP4

EPOCH          = 2026-03-28T03:57:10.438560
MEAN_MOTION    = 15.48601072
ECCENTRICITY   = .00062264
INCLINATION    = 51.6345
RA_OF_ASC_NODE = 341.0267
ARG_OF_PERICENTER = 240.9881
MEAN_ANOMALY   = 119.0483

EPHEMERIS_TYPE = 0
CLASSIFICATION_TYPE = U
NORAD_CAT_ID   = 49044
ELEMENT_SET_NO = 999
REV_AT_EPOCH   = 55747
BSTAR          = .24002995E-3
MEAN_MOTION_DOT = .12619E-3
MEAN_MOTION_DDOT = 0

CCSDS_OMM_VERS = 2.0
CREATION_DATE  = 
ORIGINATOR     = 

OBJECT_NAME    = FREGAT DEB
OBJECT_ID      = 2011-037PF
CENTER_NAME    = EARTH
REF_FRAME      = TEME
TIME_SYSTEM    = UTC
MEAN_ELEMENT_THEORY = SGP/SGP4

EPOCH          = 2026-03-28T03:14:45.974112
MEAN_MOTION    = 12.40730892
ECCENTRICITY   = .0961314
INCLINATION    = 51.6445
RA_OF_ASC_NODE = 245.3676
ARG_OF_PERICENTER = 101.7055
MEAN_ANOMALY   = 269.3133

EPHEMERIS_TYPE = 0
CLASSIFICATION_TYPE = U
NORAD_CAT_ID   = 49271
ELEMENT_SET_NO = 999
REV_AT_EPOCH   = 21498
BSTAR          = .13448E-1
MEAN_MOTION_DOT = .9431E-4
MEAN_MOTION_DDOT = 0

CCSDS_OMM_VERS = 2.0
CREATION_DATE  = 
ORIGINATOR     = 

OBJECT_NAME    = CSS (WENTIAN)
OBJECT_ID      = 2022-085A
CENTER_NAME    = EARTH
REF_FRAME      = TEME
TIME_SYSTEM    = UTC
MEAN_ELEMENT_THEORY = SGP/SGP4

EPOCH          = 2026-03-28T04:53:00.711744
MEAN_MOTION    = 15.61574783
ECCENTRICITY   = .00040982
INCLINATION    = 41.4668
RA_OF_ASC_NODE = 95.4304
ARG_OF_PERICENTER = 43.6624
MEAN_ANOMALY   = 316.4539

EPHEMERIS_TYPE = 0
CLASSIFICATION_TYPE = U
NORAD_CAT_ID   = 53239
ELEMENT_SET_NO = 999
REV_AT_EPOCH   = 28028
BSTAR          = .20558652E-3
MEAN_MOTION_DOT = .17871E-3
MEAN_MOTION_DDOT = 0

CCSDS_OMM_VERS = 2.0
CREATION_DATE  = 
ORIGINATOR     = 

OBJECT_NAME    = CSS (MENGTIAN)
OBJECT_ID      = 2022-143A
CENTER_NAME    = EARTH
REF_FRAME      = TEME
TIME_SYSTEM    = UTC
MEAN_ELEMENT_THEORY = SGP/SGP4

EPOCH          = 2026-03-28T04:53:00.711744
MEAN_MOTION    = 15.61574783
ECCENTRICITY   = .00040982
INCLINATION    = 41.4668
RA_OF_ASC_NODE = 95.4304
ARG_OF_PERICENTER = 43.6624
MEAN_ANOMALY   = 316.4539

EPHEMERIS_TYPE = 0
CLASSIFICATION_TYPE = U
NORAD_CAT_ID   = 54216
ELEMENT_SET_NO = 999
REV_AT_EPOCH   = 28028
BSTAR          = .20558652E-3
MEAN_MOTION_DOT = .17871E-3
MEAN_MOTION_DDOT = 0

CCSDS_OMM_VERS = 2.0
CREATION_DATE  = 
ORIGINATOR     = 

OBJECT_NAME    = TIANZHOU-9
OBJECT_ID      = 2025-149A
CENTER_NAME    = EARTH
REF_FRAME      = TEME
TIME_SYSTEM    = UTC
MEAN_ELEMENT_THEORY = SGP/SGP4

EPOCH          = 2026-03-28T04:53:00.711744
MEAN_MOTION    = 15.61574783
ECCENTRICITY   = .00040982
INCLINATION    = 41.4668
RA_OF_ASC_NODE = 95.4304
ARG_OF_PERICENTER = 43.6624
MEAN_ANOMALY   = 316.4539

EPHEMERIS_TYPE = 0
CLASSIFICATION_TYPE = U
NORAD_CAT_ID   = 64786
ELEMENT_SET_NO = 999
REV_AT_EPOCH   = 28028
BSTAR          = .20558652E-3
MEAN_MOTION_DOT = .17871E-3
MEAN_MOTION_DDOT = 0

CCSDS_OMM_VERS = 2.0
CREATION_DATE  = 
ORIGINATOR     = 

OBJECT_NAME    = PROGRESS-MS 32
OBJECT_ID      = 2025-204A
CENTER_NAME    = EARTH
REF_FRAME      = TEME
TIME_SYSTEM    = UTC
MEAN_ELEMENT_THEORY = SGP/SGP4

EPOCH          = 2026-03-28T03:57:10.438560
MEAN_MOTION    = 15.48601072
ECCENTRICITY   = .00062264
INCLINATION    = 51.6345
RA_OF_ASC_NODE = 341.0267
ARG_OF_PERICENTER = 240.9881
MEAN_ANOMALY   = 119.0483

EPHEMERIS_TYPE = 0
CLASSIFICATION_TYPE = U
NORAD_CAT_ID   = 65586
ELEMENT_SET_NO = 999
REV_AT_EPOCH   = 55450
BSTAR          = .24002995E-3
MEAN_MOTION_DOT = .12619E-3
MEAN_MOTION_DDOT = 0

CCSDS_OMM_VERS = 2.0
CREATION_DATE  = 
ORIGINATOR     = 

OBJECT_NAME    = YOTSUBA-KULOVER
OBJECT_ID      = 1998-067XN
CENTER_NAME    = EARTH
REF_FRAME      = TEME
TIME_SYSTEM    = UTC
MEAN_ELEMENT_THEORY = SGP/SGP4

EPOCH          = 2026-03-28T01:12:15.623712
MEAN_MOTION    = 15.90752437
ECCENTRICITY   = .00057191
INCLINATION    = 51.6180
RA_OF_ASC_NODE = 321.3981
ARG_OF_PERICENTER = 208.0412
MEAN_ANOMALY   = 152.0286

EPHEMERIS_TYPE = 0
CLASSIFICATION_TYPE = U
NORAD_CAT_ID   = 65941
ELEMENT_SET_NO = 999
REV_AT_EPOCH   = 2641
BSTAR          = .11576592E-2
MEAN_MOTION_DOT = .366776E-2
MEAN_MOTION_DDOT = .61437519E-4

CCSDS_OMM_VERS = 2.0
CREATION_DATE  = 
ORIGINATOR     = 

OBJECT_NAME    = BOTAN
OBJECT_ID      = 1998-067XQ
CENTER_NAME    = EARTH
REF_FRAME      = TEME
TIME_SYSTEM    = UTC
MEAN_ELEMENT_THEORY = SGP/SGP4

EPOCH          = 2026-03-27T22:26:51.037152
MEAN_MOTION    = 15.89793080
ECCENTRICITY   = .000613
INCLINATION    = 51.6220
RA_OF_ASC_NODE = 322.1560
ARG_OF_PERICENTER = 203.7870
MEAN_ANOMALY   = 156.2853

EPHEMERIS_TYPE = 0
CLASSIFICATION_TYPE = U
NORAD_CAT_ID   = 65943
ELEMENT_SET_NO = 999
REV_AT_EPOCH   = 2639
BSTAR          = .11002E-2
MEAN_MOTION_DOT = .331706E-2
MEAN_MOTION_DDOT = .51569E-4

CCSDS_OMM_VERS = 2.0
CREATION_DATE  = 
ORIGINATOR     = 

OBJECT_NAME    = HRC MONOBLOCK CAMERA
OBJECT_ID      = 1998-067XR
CENTER_NAME    = EARTH
REF_FRAME      = TEME
TIME_SYSTEM    = UTC
MEAN_ELEMENT_THEORY = SGP/SGP4

EPOCH          = 2026-03-28T02:41:06.656640
MEAN_MOTION    = 15.64137468
ECCENTRICITY   = .00038276
INCLINATION    = 51.6287
RA_OF_ASC_NODE = 332.4212
ARG_OF_PERICENTER = 178.5608
MEAN_ANOMALY   = 181.5399

EPHEMERIS_TYPE = 0
CLASSIFICATION_TYPE = U
NORAD_CAT_ID   = 66052
ELEMENT_SET_NO = 999
REV_AT_EPOCH   = 2527
BSTAR          = .58101204E-3
MEAN_MOTION_DOT = .56107E-3
MEAN_MOTION_DDOT = 0

